{
    "links": {
        "self": "http://www.neowsapp.com/rest/v1/neo/54013566?api_key=iIulBulltgU6a56xZRHN4H3l9WmuAYTsLGpBGhQ2"
    },
    "id": "54013566",
    "neo_reference_id": "54013566",
    "name": "(2020 EN)",
    "designation": "2020 EN",
    "nasa_jpl_url": "http://ssd.jpl.nasa.gov/sbdb.cgi?sstr=54013566",
    "absolute_magnitude_h": 18.147,
    "estimated_diameter": {
        "kilometers": {
            "estimated_diameter_min": 0.623957453,
            "estimated_diameter_max": 1.39521128
        },
        "meters": {
            "estimated_diameter_min": 623.9574529955,
            "estimated_diameter_max": 1395.2112799656
        },
        "miles": {
            "estimated_diameter_min": 0.3877090665,
            "estimated_diameter_max": 0.8669438282
        },
        "feet": {
            "estimated_diameter_min": 2047.1045700859,
            "estimated_diameter_max": 4577.4649757625
        }
    },
    "is_potentially_hazardous_asteroid": true,
    "close_approach_data": [
        {
            "close_approach_date": "2029-01-16",
            "close_approach_date_full": "2029-Jan-16 01:17",
            "epoch_date_close_approach": 1863220620000,
            "relative_velocity": {
                "kilometers_per_second": "19.7632348356",
                "kilometers_per_hour": "71147.6454080815",
                "miles_per_hour": "44208.3800037049"
            },
            "miss_distance": {
                "astronomical": "0.296824677",
                "lunar": "115.464799353",
                "kilometers": "44404339.44263799",
                "miles": "27591577.091224662"
            },
            "orbiting_body": "Earth"
        },
        {
            "close_approach_date": "2031-12-31",
            "close_approach_date_full": "2031-Dec-31 08:42",
            "epoch_date_close_approach": 1956472920000,
            "relative_velocity": {
                "kilometers_per_second": "12.5188225588",
                "kilometers_per_hour": "45067.7612115698",
                "miles_per_hour": "28003.3541817113"
            },
            "miss_distance": {
                "astronomical": "0.0665290496",
                "lunar": "25.8798002944",
                "kilometers": "9952604.113284352",
                "miles": "6184261.4279819776"
            },
            "orbiting_body": "Earth"
        },
        {
            "close_approach_date": "2037-09-21",
            "close_approach_date_full": "2037-Sep-21 11:32",
            "epoch_date_close_approach": 2137145520000,
            "relative_velocity": {
                "kilometers_per_second": "14.0718044591",
                "kilometers_per_hour": "50658.4960529303",
                "miles_per_hour": "31477.2193946666"
            },
            "miss_distance": {
                "astronomical": "0.1806065538",
                "lunar": "70.2559494282",
                "kilometers": "27018355.756520406",
                "miles": "16788427.7773613628"
            },
            "orbiting_body": "Earth"
        },
        {
            "close_approach_date": "2040-09-04",
            "close_approach_date_full": "2040-Sep-04 02:39",
            "epoch_date_close_approach": 2230339140000,
            "relative_velocity": {
                "kilometers_per_second": "22.0348012614",
                "kilometers_per_hour": "79325.284541117",
                "miles_per_hour": "49289.6469416735"
            },
            "miss_distance": {
                "astronomical": "0.4087400308",
                "lunar": "158.9998719812",
                "kilometers": "61146637.991414396",
                "miles": "37994759.0074788248"
            },
            "orbiting_body": "Earth"
        },
        {
            "close_approach_date": "2108-09-05",
            "close_approach_date_full": "2108-Sep-05 16:01",
            "epoch_date_close_approach": 4376304060000,
            "relative_velocity": {
                "kilometers_per_second": "22.3064029684",
                "kilometers_per_hour": "80303.0506861054",
                "miles_per_hour": "49897.1927999303"
            },
            "miss_distance": {
                "astronomical": "0.413287017",
                "lunar": "160.768649613",
                "kilometers": "61826857.44185379",
                "miles": "38417427.774570702"
            },
            "orbiting_body": "Earth"
        }
    ],
    "orbital_data": {
        "orbit_id": "8",
        "orbit_determination_date": "2020-05-15 06:52:17",
        "first_observation_date": "2020-03-05",
        "last_observation_date": "2020-05-14",
        "data_arc_in_days": 70,
        "observations_used": 48,
        "orbit_uncertainty": "6",
        "minimum_orbit_intersection": ".0492979",
        "jupiter_tisserand_invariant": "3.565",
        "epoch_osculation": "2459000.5",
        "eccentricity": ".5535366710049247",
        "semi_major_axis": "2.059495438516489",
        "inclination": "7.752061005069621",
        "ascending_node_longitude": "113.0826386544395",
        "orbital_period": "1079.542335741545",
        "perihelion_distance": ".9194891895302444",
        "perihelion_argument": "300.288606053084",
        "aphelion_distance": "3.199501687502735",
        "perihelion_time": "2458879.041081011612",
        "mean_anomaly": "40.50347020970181",
        "mean_motion": ".3334746476178849",
        "equinox": "J2000",
        "orbit_class": {
            "orbit_class_type": "APO",
            "orbit_class_description": "Near-Earth asteroid orbits which cross the Earth’s orbit similar to that of 1862 Apollo",
            "orbit_class_range": "a (semi-major axis) > 1.0 AU; q (perihelion) < 1.017 AU"
        }
    },
    "is_sentry_object": false
}